[{"OBJECT_NAME":"ONEWEB-0164","OBJECT_ID":"2021-025X","EPOCH":"2026-06-06T17:39:49.852224","MEAN_MOTION":13.1347065,"ECCENTRICITY":0.0001784,"INCLINATION":87.8953,"RA_OF_ASC_NODE":322.3016,"ARG_OF_PERICENTER":92.3938,"MEAN_ANOMALY":267.7396,"EPHEMERIS_TYPE":0,"CLASSIFICATION_TYPE":"U","NORAD_CAT_ID":48063,"ELEMENT_SET_NO":999,"REV_AT_EPOCH":25221,"BSTAR":0.00042509000000000004,"MEAN_MOTION_DOT":1.68e-06,"MEAN_MOTION_DDOT":0.0},{"OBJECT_NAME":"ONEWEB-0167","OBJECT_ID":"2021-025Y","EPOCH":"2026-06-06T16:30:20.924352","MEAN_MOTION":13.13470952,"ECCENTRICITY":0.0001324,"INCLINATION":87.8945,"RA_OF_ASC_NODE":322.3219,"ARG_OF_PERICENTER":113.6042,"MEAN_ANOMALY":246.5226,"EPHEMERIS_TYPE":0,"CLASSIFICATION_TYPE":"U","NORAD_CAT_ID":48064,"ELEMENT_SET_NO":999,"REV_AT_EPOCH":25219,"BSTAR":0.00059561,"MEAN_MOTION_DOT":2.3e-06,"MEAN_MOTION_DDOT":0.0},{"OBJECT_NAME":"ONEWEB-0166","OBJECT_ID":"2021-025Z","EPOCH":"2026-06-06T17:03:15.427008","MEAN_MOTION":13.13471177,"ECCENTRICITY":0.0001975,"INCLINATION":87.8956,"RA_OF_ASC_NODE":322.2878,"ARG_OF_PERICENTER":96.9944,"MEAN_ANOMALY":263.141,"EPHEMERIS_TYPE":0,"CLASSIFICATION_TYPE":"U","NORAD_CAT_ID":48065,"ELEMENT_SET_NO":999,"REV_AT_EPOCH":25227,"BSTAR":-0.00080912,"MEAN_MOTION_DOT":-2.83e-06,"MEAN_MOTION_DDOT":0.0},{"OBJECT_NAME":"ONEWEB-0151","OBJECT_ID":"2021-025AA","EPOCH":"2026-06-06T17:05:41.652096","MEAN_MOTION":13.13469669,"ECCENTRICITY":0.0001686,"INCLINATION":87.8946,"RA_OF_ASC_NODE":322.3049,"ARG_OF_PERICENTER":96.0575,"MEAN_ANOMALY":264.0746,"EPHEMERIS_TYPE":0,"CLASSIFICATION_TYPE":"U","NORAD_CAT_ID":48066,"ELEMENT_SET_NO":999,"REV_AT_EPOCH":25221,"BSTAR":-0.00070323,"MEAN_MOTION_DOT":-2.44e-06,"MEAN_MOTION_DDOT":0.0},{"OBJECT_NAME":"ONEWEB-0170","OBJECT_ID":"2021-025AB","EPOCH":"2026-06-06T17:17:53.278656","MEAN_MOTION":13.1346912,"ECCENTRICITY":0.0001423,"INCLINATION":87.8946,"RA_OF_ASC_NODE":322.3051,"ARG_OF_PERICENTER":85.6596,"MEAN_ANOMALY":274.4696,"EPHEMERIS_TYPE":0,"CLASSIFICATION_TYPE":"U","NORAD_CAT_ID":48067,"ELEMENT_SET_NO":999,"REV_AT_EPOCH":25217,"BSTAR":-0.00082135,"MEAN_MOTION_DOT":-2.87e-06,"MEAN_MOTION_DDOT":0.0},{"OBJECT_NAME":"ONEWEB-0168","OBJECT_ID":"2021-025AC","EPOCH":"2026-06-06T16:55:56.877888","MEAN_MOTION":13.13469357,"ECCENTRICITY":0.0001863,"INCLINATION":87.8954,"RA_OF_ASC_NODE":322.3073,"ARG_OF_PERICENTER":100.1111,"MEAN_ANOMALY":260.0228,"EPHEMERIS_TYPE":0,"CLASSIFICATION_TYPE":"U","NORAD_CAT_ID":48068,"ELEMENT_SET_NO":999,"REV_AT_EPOCH":25218,"BSTAR":-0.00048468000000000003,"MEAN_MOTION_DOT":-1.64e-06,"MEAN_MOTION_DDOT":0.0},{"OBJECT_NAME":"ONEWEB-0173","OBJECT_ID":"2021-025AD","EPOCH":"2026-06-06T16:43:45.919200","MEAN_MOTION":13.13469458,"ECCENTRICITY":0.0001711,"INCLINATION":87.895,"RA_OF_ASC_NODE":322.3114,"ARG_OF_PERICENTER":107.0129,"MEAN_ANOMALY":253.1187,"EPHEMERIS_TYPE":0,"CLASSIFICATION_TYPE":"U","NORAD_CAT_ID":48069,"ELEMENT_SET_NO":999,"REV_AT_EPOCH":25242,"BSTAR":6.275600000000001e-05,"MEAN_MOTION_DOT":3.6e-07,"MEAN_MOTION_DDOT":0.0},{"OBJECT_NAME":"ONEWEB-0171","OBJECT_ID":"2021-025AE","EPOCH":"2026-06-06T17:37:23.869056","MEAN_MOTION":13.13473042,"ECCENTRICITY":0.0001527,"INCLINATION":87.8979,"RA_OF_ASC_NODE":322.3127,"ARG_OF_PERICENTER":94.5331,"MEAN_ANOMALY":265.5973,"EPHEMERIS_TYPE":0,"CLASSIFICATION_TYPE":"U","NORAD_CAT_ID":48070,"ELEMENT_SET_NO":999,"REV_AT_EPOCH":25224,"BSTAR":-0.0012506000000000001,"MEAN_MOTION_DOT":-4.44e-06,"MEAN_MOTION_DDOT":0.0},{"OBJECT_NAME":"ONEWEB-0172","OBJECT_ID":"2021-025AF","EPOCH":"2026-06-06T17:08:08.112192","MEAN_MOTION":13.13470661,"ECCENTRICITY":0.0001673,"INCLINATION":87.8951,"RA_OF_ASC_NODE":322.3051,"ARG_OF_PERICENTER":98.5629,"MEAN_ANOMALY":261.569,"EPHEMERIS_TYPE":0,"CLASSIFICATION_TYPE":"U","NORAD_CAT_ID":48071,"ELEMENT_SET_NO":999,"REV_AT_EPOCH":25313,"BSTAR":-0.00067048,"MEAN_MOTION_DOT":-2.32e-06,"MEAN_MOTION_DDOT":0.0},{"OBJECT_NAME":"ONEWEB-0174","OBJECT_ID":"2021-025AG","EPOCH":"2026-06-06T16:41:20.448384","MEAN_MOTION":13.13469761,"ECCENTRICITY":0.0001944,"INCLINATION":87.8951,"RA_OF_ASC_NODE":322.309,"ARG_OF_PERICENTER":96.7603,"MEAN_ANOMALY":263.3747,"EPHEMERIS_TYPE":0,"CLASSIFICATION_TYPE":"U","NORAD_CAT_ID":48072,"ELEMENT_SET_NO":999,"REV_AT_EPOCH":25245,"BSTAR":0.00013644000000000002,"MEAN_MOTION_DOT":6.3e-07,"MEAN_MOTION_DDOT":0.0},{"OBJECT_NAME":"ONEWEB-0175","OBJECT_ID":"2021-025AH","EPOCH":"2026-06-06T11:56:07.416384","MEAN_MOTION":13.13470585,"ECCENTRICITY":0.0001454,"INCLINATION":87.8954,"RA_OF_ASC_NODE":322.3322,"ARG_OF_PERICENTER":94.5026,"MEAN_ANOMALY":265.627,"EPHEMERIS_TYPE":0,"CLASSIFICATION_TYPE":"U","NORAD_CAT_ID":48073,"ELEMENT_SET_NO":999,"REV_AT_EPOCH":25208,"BSTAR":-0.00030012,"MEAN_MOTION_DOT":-9.7e-07,"MEAN_MOTION_DDOT":0.0},{"OBJECT_NAME":"ONEWEB-0177","OBJECT_ID":"2021-025AJ","EPOCH":"2026-06-06T17:42:16.440192","MEAN_MOTION":13.13470815,"ECCENTRICITY":0.0001934,"INCLINATION":87.8948,"RA_OF_ASC_NODE":322.3031,"ARG_OF_PERICENTER":100.727,"MEAN_ANOMALY":259.4077,"EPHEMERIS_TYPE":0,"CLASSIFICATION_TYPE":"U","NORAD_CAT_ID":48074,"ELEMENT_SET_NO":999,"REV_AT_EPOCH":25230,"BSTAR":0.00039581,"MEAN_MOTION_DOT":1.57e-06,"MEAN_MOTION_DDOT":0.0},{"OBJECT_NAME":"ONEWEB-0178","OBJECT_ID":"2021-025AK","EPOCH":"2026-06-06T18:09:16.446240","MEAN_MOTION":13.13471365,"ECCENTRICITY":0.0001539,"INCLINATION":87.894,"RA_OF_ASC_NODE":322.3133,"ARG_OF_PERICENTER":100.0831,"MEAN_ANOMALY":260.0472,"EPHEMERIS_TYPE":0,"CLASSIFICATION_TYPE":"U","NORAD_CAT_ID":48075,"ELEMENT_SET_NO":999,"REV_AT_EPOCH":25235,"BSTAR":0.0007667300000000001,"MEAN_MOTION_DOT":2.93e-06,"MEAN_MOTION_DDOT":0.0},{"OBJECT_NAME":"ONEWEB-0108","OBJECT_ID":"2021-025AL","EPOCH":"2026-06-06T17:10:34.590432","MEAN_MOTION":13.13469527,"ECCENTRICITY":0.0001984,"INCLINATION":87.8957,"RA_OF_ASC_NODE":322.298,"ARG_OF_PERICENTER":89.999,"MEAN_ANOMALY":270.1366,"EPHEMERIS_TYPE":0,"CLASSIFICATION_TYPE":"U","NORAD_CAT_ID":48076,"ELEMENT_SET_NO":999,"REV_AT_EPOCH":25227,"BSTAR":-0.00079927,"MEAN_MOTION_DOT":-2.79e-06,"MEAN_MOTION_DDOT":0.0},{"OBJECT_NAME":"ONEWEB-0169","OBJECT_ID":"2021-025AM","EPOCH":"2026-06-06T17:56:53.981664","MEAN_MOTION":13.13470048,"ECCENTRICITY":0.000191,"INCLINATION":87.8949,"RA_OF_ASC_NODE":322.3009,"ARG_OF_PERICENTER":96.1972,"MEAN_ANOMALY":263.9374,"EPHEMERIS_TYPE":0,"CLASSIFICATION_TYPE":"U","NORAD_CAT_ID":48077,"ELEMENT_SET_NO":999,"REV_AT_EPOCH":25093,"BSTAR":0.0008372400000000001,"MEAN_MOTION_DOT":3.19e-06,"MEAN_MOTION_DDOT":0.0},{"OBJECT_NAME":"ONEWEB-0176","OBJECT_ID":"2021-031A","EPOCH":"2026-06-06T16:11:37.626720","MEAN_MOTION":13.14502211,"ECCENTRICITY":0.0001725,"INCLINATION":87.8947,"RA_OF_ASC_NODE":291.7948,"ARG_OF_PERICENTER":101.1405,"MEAN_ANOMALY":258.9918,"EPHEMERIS_TYPE":0,"CLASSIFICATION_TYPE":"U","NORAD_CAT_ID":48210,"ELEMENT_SET_NO":999,"REV_AT_EPOCH":24693,"BSTAR":0.00052871,"MEAN_MOTION_DOT":2.09e-06,"MEAN_MOTION_DDOT":0.0}]